OBJECT_NAME,OBJECT_ID,EPOCH,MEAN_MOTION,ECCENTRICITY,INCLINATION,RA_OF_ASC_NODE,ARG_OF_PERICENTER,MEAN_ANOMALY,EPHEMERIS_TYPE,CLASSIFICATION_TYPE,NORAD_CAT_ID,ELEMENT_SET_NO,REV_AT_EPOCH,BSTAR,MEAN_MOTION_DOT,MEAN_MOTION_DDOT
STARLINK-11384 [DTC],2024-220A,2026-07-01T23:29:03.386688,15.70906422,.00020222,42.9987,74.5535,253.3333,106.7313,0,U,62088,999,9302,.1734262E-2,.22896E-2,0
STARLINK-11379 [DTC],2024-220B,2026-07-01T23:21:22.484160,15.70819238,.00020461,43.0004,74.5110,138.3190,221.7834,0,U,62089,999,9292,.11172188E-2,.145315E-2,0
STARLINK-11387 [DTC],2024-220C,2026-07-01T23:13:43.929984,15.70826582,.00021512,43.0006,74.4683,133.1906,226.9142,0,U,62090,999,9302,.17342792E-2,.228175E-2,0
STARLINK-11389 [DTC],2024-220D,2026-07-01T16:59:50.308224,15.71093366,.0002308,43.0002,75.9605,259.4388,100.6220,0,U,62091,999,9288,.26088373E-2,.352631E-2,0
STARLINK-11388 [DTC],2024-220E,2026-06-30T21:01:56.174304,15.70899468,.0001874,43.0005,80.8985,260.8361,99.2294,0,U,62092,999,9275,.14431E-2,.189479E-2,0
STARLINK-11345 [DTC],2024-220F,2026-07-01T19:47:39.741792,15.70781366,.00014687,42.9992,75.1060,242.1912,117.8807,0,U,62093,999,9290,.15852568E-2,.207611E-2,0
STARLINK-11381 [DTC],2024-220G,2026-06-30T23:49:45.526656,15.70864394,.00010801,43.0015,80.0457,181.8339,178.2525,0,U,62094,999,9277,.15347179E-2,.20153E-2,0
STARLINK-11369 [DTC],2024-220H,2026-07-01T22:35:30.266592,15.70891980,.00017904,43.0002,74.2552,255.0427,105.0242,0,U,62095,999,9302,.14250689E-2,.186988E-2,0
STARLINK-11303 [DTC],2024-220J,2026-06-30T23:34:28.433856,15.70870362,.00021305,43.0006,79.9619,283.8622,76.2008,0,U,62096,999,9287,.17765993E-2,.234359E-2,0
STARLINK-11367 [DTC],2024-220K,2026-07-01T14:42:24.543648,15.70904238,.00014016,43.0003,76.0860,261.2432,98.8277,0,U,62097,999,9297,.16245759E-2,.214039E-2,0
STARLINK-11386 [DTC],2024-220L,2026-07-01T10:00:05.599008,15.70975680,.0001909,43.0018,77.1942,277.7745,82.2906,0,U,62098,999,9284,.87058861E-3,.113445E-2,0
STARLINK-11380 [DTC],2024-220M,2026-07-01T17:30:13.889088,15.70915162,.0001754,42.9988,75.2324,262.7288,97.3381,0,U,62099,999,9289,.13011889E-2,.17052E-2,0
STARLINK-33566,2024-220N,2026-07-01T22:30:21.262176,15.27576366,.00013371,42.9997,265.6232,265.3424,94.7275,0,U,62100,999,9083,.61553145E-3,.16713E-3,0
STARLINK-33545,2024-220P,2026-07-01T17:17:33.397152,15.27610348,.00019274,43.0025,281.3114,275.1655,84.8976,0,U,62101,999,9046,.10569094E-2,.28963E-3,0
STARLINK-33562,2024-220Q,2026-07-01T16:00:02.577600,15.27604199,.00031309,43.0028,281.7627,248.7721,111.2797,0,U,62102,999,9045,.87786592E-3,.23993E-3,0
STARLINK-33554,2024-220R,2026-07-01T15:37:51.450816,15.27589616,.00020107,43.0019,281.6504,262.6396,97.4227,0,U,62103,999,9038,.11591846E-2,.31784E-3,0
STARLINK-33555,2024-220S,2026-07-01T16:25:59.954016,15.27545045,.00007814,43.0005,281.9006,305.2313,54.8466,0,U,62104,999,9059,.44117637E-3,.11885E-3,0
STARLINK-33559,2024-220V,2026-07-01T16:20:24.458496,15.27601059,.00014212,42.9997,281.8718,272.2828,87.7861,0,U,62107,999,9062,.38043346E-3,.10228E-3,0
STARLINK-33553,2024-220W,2026-07-01T17:43:27.501600,15.27611611,.00016541,43.0009,281.4458,271.2793,88.7869,0,U,62108,999,9063,.74944238E-3,.20438E-3,0
STARLINK-33556,2024-220X,2026-07-01T15:48:57.230208,15.27604194,.00011016,43.0028,281.7078,270.4000,89.6726,0,U,62109,999,9064,.65572246E-3,.17839E-3,0
STARLINK-33551,2024-220Y,2026-07-01T17:49:00.535584,15.27601990,.00019616,43.0001,281.4750,272.4819,87.5808,0,U,62110,999,9063,.45834403E-3,.1238E-3,0
GUANGCHUAN 01,2024-221A,2026-07-01T22:44:01.504032,15.14731729,.00073673,49.9438,90.2864,0.1408,359.9544,0,U,62111,999,8842,.27114099E-3,.4795E-4,0
GUANGCHUAN 02,2024-221B,2026-07-01T22:48:32.356800,15.14710631,.00066053,49.9425,90.2154,46.3931,313.7567,0,U,62112,999,8841,.28634445E-3,.5078E-4,0
STARLINK-32311,2024-222A,2026-07-01T12:53:40.738848,15.27618120,.00020988,43.0016,198.2514,275.7115,84.3497,0,U,62114,999,9049,.91673923E-3,.2508E-3,0
STARLINK-32470,2024-222B,2026-07-01T11:29:54.690144,15.27599451,.00009025,43.0027,213.3886,298.5972,61.4789,0,U,62115,999,9030,.67853814E-3,.18467E-3,0
STARLINK-32502,2024-222C,2026-07-01T12:01:21.471744,15.27602875,.00019315,42.9998,213.5477,272.2598,87.8032,0,U,62116,999,9021,.88349048E-3,.24147E-3,0
STARLINK-32521,2024-222D,2026-07-01T11:41:40.355232,15.27603138,.00018831,42.9989,209.8724,273.1315,86.9322,0,U,62117,999,9019,.8647339E-3,.23627E-3,0
STARLINK-32549,2024-222E,2026-07-01T19:00:21.137184,15.27604066,.00020306,43.0019,211.4355,268.2474,91.8145,0,U,62118,999,9026,.72716204E-3,.19817E-3,0
STARLINK-32535,2024-222F,2026-07-01T18:29:45.288384,15.27608377,.00012858,42.9955,208.6739,298.3794,61.6927,0,U,62119,999,9024,-.36941982E-3,-.10422E-3,0
STARLINK-32548,2024-222G,2026-07-01T18:38:19.939488,15.27601946,.00025806,42.9946,212.1775,277.1548,82.9011,0,U,62120,999,9020,.61076664E-3,.16595E-3,0
