STARLINK-11384 [DTC]    
1 62088U 24220A   26182.97851142  .00228960  00000+0  17343-2 0  9996
2 62088  42.9987  74.5535 0002022 253.3333 106.7313 15.70906422 93023
STARLINK-11379 [DTC]    
1 62089U 24220B   26182.97317690  .00145315  00000+0  11172-2 0  9998
2 62089  43.0004  74.5110 0002046 138.3190 221.7834 15.70819238 92926
STARLINK-11387 [DTC]    
1 62090U 24220C   26182.96786956  .00228175  00000+0  17343-2 0  9996
2 62090  43.0006  74.4683 0002151 133.1906 226.9142 15.70826582 93020
STARLINK-11389 [DTC]    
1 62091U 24220D   26182.70822116  .00352631  00000+0  26088-2 0  9999
2 62091  43.0002  75.9605 0002308 259.4388 100.6220 15.71093366 92882
STARLINK-11388 [DTC]    
1 62092U 24220E   26181.87634461  .00189479  00000+0  14431-2 0  9998
2 62092  43.0005  80.8985 0001874 260.8361  99.2294 15.70899468 92752
STARLINK-11345 [DTC]    
1 62093U 24220F   26182.82476553  .00207611  00000+0  15853-2 0  9999
2 62093  42.9992  75.1060 0001468 242.1912 117.8807 15.70781366 92902
STARLINK-11381 [DTC]    
1 62094U 24220G   26181.99288804  .00201530  00000+0  15347-2 0  9999
2 62094  43.0015  80.0457 0001080 181.8339 178.2525 15.70864394 92774
STARLINK-11369 [DTC]    
1 62095U 24220H   26182.94132253  .00186988  00000+0  14251-2 0  9994
2 62095  43.0002  74.2552 0001790 255.0427 105.0242 15.70891980 93026
STARLINK-11303 [DTC]    
1 62096U 24220J   26181.98227354  .00234359  00000+0  17766-2 0  9995
2 62096  43.0006  79.9619 0002130 283.8622  76.2008 15.70870362 92874
STARLINK-11367 [DTC]    
1 62097U 24220K   26182.61278407  .00214039  00000+0  16246-2 0  9997
2 62097  43.0003  76.0860 0001401 261.2432  98.8277 15.70904238 92976
STARLINK-11386 [DTC]    
1 62098U 24220L   26182.41673147  .00113445  00000+0  87059-3 0  9996
2 62098  43.0018  77.1942 0001909 277.7745  82.2906 15.70975680 92849
STARLINK-11380 [DTC]    
1 62099U 24220M   26182.72932742  .00170520  00000+0  13012-2 0  9994
2 62099  42.9988  75.2324 0001754 262.7288  97.3381 15.70915162 92899
STARLINK-33566          
1 62100U 24220N   26182.93774609  .00016713  00000+0  61553-3 0  9993
2 62100  42.9997 265.6232 0001337 265.3424  94.7275 15.27576366 90839
STARLINK-33545          
1 62101U 24220P   26182.72052543  .00028963  00000+0  10569-2 0  9997
2 62101  43.0025 281.3114 0001927 275.1655  84.8976 15.27610348 90464
STARLINK-33562          
1 62102U 24220Q   26182.66669650  .00023993  00000+0  87787-3 0  9999
2 62102  43.0028 281.7627 0003130 248.7721 111.2797 15.27604199 90451
STARLINK-33554          
1 62103U 24220R   26182.65128994  .00031784  00000+0  11592-2 0  9997
2 62103  43.0019 281.6504 0002010 262.6396  97.4227 15.27589616 90385
STARLINK-33555          
1 62104U 24220S   26182.68472169  .00011885  00000+0  44118-3 0  9998
2 62104  43.0005 281.9006 0000781 305.2313  54.8466 15.27545045 90590
STARLINK-33559          
1 62107U 24220V   26182.68083864  .00010228  00000+0  38043-3 0  9991
2 62107  42.9997 281.8718 0001421 272.2828  87.7861 15.27601059 90622
STARLINK-33553          
1 62108U 24220W   26182.73851275  .00020438  00000+0  74944-3 0  9991
2 62108  43.0009 281.4458 0001654 271.2793  88.7869 15.27611611 90639
STARLINK-33556          
1 62109U 24220X   26182.65899572  .00017839  00000+0  65572-3 0  9993
2 62109  43.0028 281.7078 0001101 270.4000  89.6726 15.27604194 90642
STARLINK-33551          
1 62110U 24220Y   26182.74236731  .00012380  00000+0  45834-3 0  9992
2 62110  43.0001 281.4750 0001961 272.4819  87.5808 15.27601990 90631
GUANGCHUAN 01           
1 62111U 24221A   26182.94723963  .00004795  00000+0  27114-3 0  9996
2 62111  49.9438  90.2864 0007367   0.1408 359.9544 15.14731729 88426
GUANGCHUAN 02           
1 62112U 24221B   26182.95037450  .00005078  00000+0  28634-3 0  9990
2 62112  49.9425  90.2154 0006605  46.3931 313.7567 15.14710631 88413
STARLINK-32311          
1 62114U 24222A   26182.53727707  .00025080  00000+0  91674-3 0  9997
2 62114  43.0016 198.2514 0002098 275.7115  84.3497 15.27618120 90497
STARLINK-32470          
1 62115U 24222B   26182.47910521  .00018467  00000+0  67854-3 0  9993
2 62115  43.0027 213.3886 0000902 298.5972  61.4789 15.27599451 90302
STARLINK-32502          
1 62116U 24222C   26182.50094296  .00024147  00000+0  88349-3 0  9994
2 62116  42.9998 213.5477 0001931 272.2598  87.8032 15.27602875 90210
STARLINK-32521          
1 62117U 24222D   26182.48727263  .00023627  00000+0  86473-3 0  9997
2 62117  42.9989 209.8724 0001883 273.1315  86.9322 15.27603138 90199
STARLINK-32549          
1 62118U 24222E   26182.79191131  .00019817  00000+0  72716-3 0  9992
2 62118  43.0019 211.4355 0002030 268.2474  91.8145 15.27604066 90268
STARLINK-32535          
1 62119U 24222F   26182.77066306 -.00010422  00000+0 -36942-3 0  9992
2 62119  42.9955 208.6739 0001285 298.3794  61.6927 15.27608377 90240
STARLINK-32548          
1 62120U 24222G   26182.77661967  .00016595  00000+0  61077-3 0  9990
2 62120  42.9946 212.1775 0002580 277.1548  82.9011 15.27601946 90204
